COSMOS 2426 (717)       
1 29671U 06062B   20144.54097039  .00000001  00000-0  10000-3 0  9992
2 29671  64.9778 268.7532 0020077 171.8740  57.7406  2.12962354104362
COSMOS 2433 (720)       
1 32275U 07052A   20144.31299412 -.00000050  00000-0  10000-3 0  9995
2 32275  65.9745  29.7582 0002051 284.4880 257.0284  2.13104290 97873
COSMOS 2432 (719)       
1 32276U 07052B   20144.41289968 -.00000050  00000-0  10000-3 0  9992
2 32276  65.9848  29.8430 0011007 338.0806 230.3387  2.13103945 97870
COSMOS 2434 (721)       
1 32393U 07065A   20144.54127106  .00000002  00000-0  00000-0 0  9997
2 32393  64.5835 267.2727 0004273  98.8593 145.3486  2.13103061 96580
COSMOS 2436 (723)       
1 32395U 07065C   20144.51176008  .00000002  00000-0  10000-3 0  9995
2 32395  64.5936 267.3231 0013953   5.3468 352.4731  2.13103042 96510
COSMOS 2456 (730)       
1 36111U 09070A   20144.59843190  .00000084  00000-0  00000-0 0  9990
2 36111  64.2258 146.9431 0006363 303.7545 157.7294  2.13102869 81257
COSMOS 2457 (733)       
1 36112U 09070B   20144.36562889  .00000084  00000-0  00000-0 0  9999
2 36112  64.2093 146.8462 0004789 196.5413 209.7346  2.13101483 81257
COSMOS 2459 (731)       
1 36400U 10007A   20144.41728045 -.00000050  00000-0  10000-3 0  9993
2 36400  65.8749  28.7294 0026774 351.5897 125.2600  2.13105177 79605
COSMOS 2461 (735)       
1 36401U 10007B   20143.87101527 -.00000052  00000-0  10000-3 0  9995
2 36401  65.8704  28.7198 0008523  59.1783 266.9728  2.13102198 79588
COSMOS 2460 (732)       
1 36402U 10007C   20144.49971209 -.00000050  00000-0  10000-3 0  9995
2 36402  65.8601  28.6558 0001585  26.4177 101.2140  2.13101428 79606
COSMOS 2464 (736)       
1 37139U 10041C   20144.40664309  .00000001  00000-0  00000-0 0  9993
2 37139  64.1822 266.7298 0026233  13.0945 351.6247  2.13100708 75671
COSMOS 2474 (742)       
1 37829U 11055A   20144.36217616  .00000086  00000-0  00000+0 0  9997
2 37829  64.5453 147.9665 0010610 250.2583 244.8408  2.13101770 67240
COSMOS 2476 (744)       
1 37867U 11064A   20144.18819896  .00000086  00000-0  00000-0 0  9998
2 37867  64.5255 148.0158 0021596 243.1928 164.6917  2.13101910 66597
COSMOS 2477 (745)       
1 37868U 11064B   20144.36327935  .00000086  00000-0  00000-0 0  9997
2 37868  64.5343 148.0668 0019190 244.6266 116.0842  2.13101777 66555
COSMOS 2475 (743)       
1 37869U 11064C   20144.41522838  .00000086  00000-0  00000-0 0  9993
2 37869  64.5414 148.0661 0023610 263.4221  94.4908  2.13101984 66552
COSMOS 2485 (747)       
1 39155U 13019A   20144.23789258  .00000086  00000-0  00000-0 0  9996
2 39155  64.6931 148.2781 0021927 238.8147 251.7670  2.13101935 55068
COSMOS 2492 (754)       
1 39620U 14012A   20144.28284530 -.00000051  00000-0  10000-3 0  9992
2 39620  65.7492  28.4497 0014321 331.0768 229.0735  2.13103273 48011
COSMOS 2500 (755)       
1 40001U 14032A   20144.41047722 -.00000050  00000-0  00000+0 0  9998
2 40001  65.6873  28.3630 0004672 206.3162 312.3618  2.13102654 46236
COSMOS 2501 (702K)      
1 40315U 14075A   20144.47509772  .00000000  00000-0  00000-0 0  9992
2 40315  63.9021 267.6826 0016097 204.9367 158.5157  2.13098665 42645
COSMOS 2514 (751)       
1 41330U 16008A   20144.23070000 -.00000051  00000-0  00000+0 0  9995
2 41330  65.4899  28.2459 0008201 216.3469 346.7899  2.13103062 33398
COSMOS 2516 (753)       
1 41554U 16032A   20144.40544480 -.00000000  00000-0  00000-0 0  9992
2 41554  64.1232 267.7470 0012183 213.2409  14.7343  2.13101711 31001
COSMOS 2522 (752)       
1 42939U 17055A   20144.39759755 -.00000000  00000-0  00000+0 0  9996
2 42939  64.3576 267.9208 0006439 241.5309 206.9958  2.13101888 20766
COSMOS 2527 (756)       
1 43508U 18053A   20144.13773561  .00000087  00000-0  00000-0 0  9996
2 43508  64.8578 148.1227 0009276 243.9347  37.0038  2.13102627 15046
COSMOS 2529 (757)       
1 43687U 18086A   20144.43440404  .00000000  00000-0  00000-0 0  9995
2 43687  64.5711 268.0338 0008657 271.2788 161.1064  2.13102110 12075
COSMOS 2534 (758)       
1 44299U 19030A   20144.47400892  .00000001  00000-0  00000-0 0  9997
2 44299  64.6401 267.8453 0011756 290.9114 306.9135  2.13102020  7715
